start=new Date('2023-05-15T00:00:00.000Z').valueOf();
sats=[{"LAUNCH_DATE":"2020-10-06","TIME_SYSTEM":"UTC","SITE":"AFETR","ARG_OF_PERICENTER":"102.6114","PERIOD":"95.592","EPOCH":"2023-05-14T23:34:48.427680","RA_OF_ASC_NODE":"119.1343","INCLINATION":"53.0550","MEAN_ELEMENT_THEORY":"SGP4","TLE_LINE2":"2 46547  53.0550 119.1343 0001163 102.6114 257.5005 15.06397563144327","FILE":"3907989","REF_FRAME":"TEME","MEAN_ANOMALY":"257.5005","REV_AT_EPOCH":"14432","CENTER_NAME":"EARTH","DECAY_DATE":null,"APOAPSIS":"548.026","MEAN_MOTION_DDOT":"0.0000000000000","PERIAPSIS":"546.416","TLE_LINE1":"1 46547U 20070R   23134.98250495 -.00000038  00000-0  16353-4 0  9994","MEAN_MOTION":"15.06397563","SEMIMAJOR_AXIS":"6925.356","NORAD_CAT_ID":"46547","MEAN_MOTION_DOT":"-0.00000038","OBJECT_NAME":"STARLINK-1698","RCS_SIZE":"LARGE","CLASSIFICATION_TYPE":"U","GP_ID":"231830457","OBJECT_TYPE":"PAYLOAD","OBJECT_ID":"2020-070R","ECCENTRICITY":"0.00011630","COUNTRY_CODE":"US","EPHEMERIS_TYPE":"0","BSTAR":"0.00001635300000","ELEMENT_SET_NO":"999"},{"EPHEMERIS_TYPE":"0","COUNTRY_CODE":"US","ELEMENT_SET_NO":"999","BSTAR":"0.00002697400000","MEAN_MOTION_DOT":"0.00000120","NORAD_CAT_ID":"46548","SEMIMAJOR_AXIS":"6925.363","MEAN_MOTION":"15.06395335","TLE_LINE1":"1 46548U 20070S   23134.66277370  .00000120  00000-0  26974-4 0  9992","PERIAPSIS":"546.368","ECCENTRICITY":"0.00012420","OBJECT_ID":"2020-070S","OBJECT_TYPE":"PAYLOAD","GP_ID":"231851269","CLASSIFICATION_TYPE":"U","RCS_SIZE":"LARGE","OBJECT_NAME":"STARLINK-1699","MEAN_ANOMALY":"269.9093","REF_FRAME":"TEME","FILE":"3908005","TLE_LINE2":"2 46548  53.0535 120.5832 0001242  90.2038 269.9093 15.06395335144256","MEAN_ELEMENT_THEORY":"SGP4","INCLINATION":"53.0535","RA_OF_ASC_NODE":"120.5832","MEAN_MOTION_DDOT":"0.0000000000000","APOAPSIS":"548.088","DECAY_DATE":null,"CENTER_NAME":"EARTH","REV_AT_EPOCH":"14425","EPOCH":"2023-05-14T15:54:23.647680","PERIOD":"95.592","ARG_OF_PERICENTER":"90.2038","SITE":"AFETR","LAUNCH_DATE":"2020-10-06","TIME_SYSTEM":"UTC"},{"ELEMENT_SET_NO":"999","BSTAR":"0.00007688300000","EPHEMERIS_TYPE":"0","COUNTRY_CODE":"US","OBJECT_ID":"2020-070T","ECCENTRICITY":"0.00014320","OBJECT_TYPE":"PAYLOAD","RCS_SIZE":"LARGE","GP_ID":"231850017","CLASSIFICATION_TYPE":"U","OBJECT_NAME":"STARLINK-1700","MEAN_MOTION_DOT":"0.00000864","SEMIMAJOR_AXIS":"6925.364","NORAD_CAT_ID":"46549","MEAN_MOTION":"15.06394922","PERIAPSIS":"546.237","TLE_LINE1":"1 46549U 20070T   23134.69226544  .00000864  00000-0  76883-4 0  9992","APOAPSIS":"548.221","MEAN_MOTION_DDOT":"0.0000000000000","CENTER_NAME":"EARTH","DECAY_DATE":null,"REV_AT_EPOCH":"14425","MEAN_ANOMALY":"275.4554","REF_FRAME":"TEME","TLE_LINE2":"2 46549  53.0552 120.4485 0001432  84.6598 275.4554 15.06394922144253","FILE":"3908005","MEAN_ELEMENT_THEORY":"SGP4","RA_OF_ASC_NODE":"120.4485","INCLINATION":"53.0552","EPOCH":"2023-05-14T16:36:51.734016","PERIOD":"95.592","ARG_OF_PERICENTER":"84.6598","LAUNCH_DATE":"2020-10-06","TIME_SYSTEM":"UTC","SITE":"AFETR"},{"EPOCH":"2023-05-14T16:15:38.095200","PERIOD":"95.593","ARG_OF_PERICENTER":"90.7451","LAUNCH_DATE":"2020-10-06","TIME_SYSTEM":"UTC","SITE":"AFETR","MEAN_ANOMALY":"269.3689","REF_FRAME":"TEME","TLE_LINE2":"2 46550  53.0548 120.5229 0001315  90.7451 269.3689 15.06391473144252","FILE":"3908005","MEAN_ELEMENT_THEORY":"SGP4","RA_OF_ASC_NODE":"120.5229","INCLINATION":"53.0548","APOAPSIS":"548.150","MEAN_MOTION_DDOT":"0.0000000000000","CENTER_NAME":"EARTH","DECAY_DATE":null,"REV_AT_EPOCH":"14425","MEAN_MOTION_DOT":"0.00001322","SEMIMAJOR_AXIS":"6925.375","NORAD_CAT_ID":"46550","MEAN_MOTION":"15.06391473","PERIAPSIS":"546.329","TLE_LINE1":"1 46550U 20070U   23134.67752425  .00001322  00000-0  10763-3 0  9998","OBJECT_ID":"2020-070U","ECCENTRICITY":"0.00013150","OBJECT_TYPE":"PAYLOAD","RCS_SIZE":"LARGE","CLASSIFICATION_TYPE":"U","GP_ID":"231849767","OBJECT_NAME":"STARLINK-1701","EPHEMERIS_TYPE":"0","COUNTRY_CODE":"US","ELEMENT_SET_NO":"999","BSTAR":"0.00010763000000"},{"MEAN_ELEMENT_THEORY":"SGP4","RA_OF_ASC_NODE":"92.9662","INCLINATION":"53.0527","MEAN_ANOMALY":"244.1375","REF_FRAME":"TEME","FILE":"3907744","TLE_LINE2":"2 46553  53.0527  92.9662 0001122 115.9729 244.1375 15.06394607144591","REV_AT_EPOCH":"14459","APOAPSIS":"548.007","MEAN_MOTION_DDOT":"0.0000000000000","CENTER_NAME":"EARTH","DECAY_DATE":null,"ARG_OF_PERICENTER":"115.9729","LAUNCH_DATE":"2020-10-06","TIME_SYSTEM":"UTC","SITE":"AFETR","EPOCH":"2023-05-14T03:14:03.819552","PERIOD":"95.592","EPHEMERIS_TYPE":"0","COUNTRY_CODE":"US","BSTAR":"0.00007423800000","ELEMENT_SET_NO":"999","MEAN_MOTION":"15.06394607","PERIAPSIS":"546.453","TLE_LINE1":"1 46553U 20070X   23134.13476643  .00000824  00000-0  74238-4 0  9991","MEAN_MOTION_DOT":"0.00000824","SEMIMAJOR_AXIS":"6925.365","NORAD_CAT_ID":"46553","RCS_SIZE":"LARGE","GP_ID":"231817910","CLASSIFICATION_TYPE":"U","OBJECT_NAME":"STARLINK-1664","OBJECT_ID":"2020-070X","ECCENTRICITY":"0.00011220","OBJECT_TYPE":"PAYLOAD"},{"EPHEMERIS_TYPE":"0","COUNTRY_CODE":"US","ELEMENT_SET_NO":"999","BSTAR":"0.00012097000000","MEAN_MOTION_DOT":"0.00001520","SEMIMAJOR_AXIS":"6925.376","NORAD_CAT_ID":"46554","MEAN_MOTION":"15.06391063","PERIAPSIS":"546.246","TLE_LINE1":"1 46554U 20070Y   23134.65125890  .00001520  00000-0  12097-3 0  9992","OBJECT_ID":"2020-070Y","ECCENTRICITY":"0.00014370","OBJECT_TYPE":"PAYLOAD","RCS_SIZE":"LARGE","GP_ID":"231850769","CLASSIFICATION_TYPE":"U","OBJECT_NAME":"STARLINK-1671","MEAN_ANOMALY":"257.9794","REF_FRAME":"TEME","FILE":"3908005","TLE_LINE2":"2 46554  53.0548 105.6361 0001437 102.1356 257.9794 15.06391063144462","MEAN_ELEMENT_THEORY":"SGP4","RA_OF_ASC_NODE":"105.6361","INCLINATION":"53.0548","APOAPSIS":"548.236","MEAN_MOTION_DDOT":"0.0000000000000","CENTER_NAME":"EARTH","DECAY_DATE":null,"REV_AT_EPOCH":"14446","EPOCH":"2023-05-14T15:37:48.768960","PERIOD":"95.593","ARG_OF_PERICENTER":"102.1356","TIME_SYSTEM":"UTC","LAUNCH_DATE":"2020-10-06","SITE":"AFETR"},{"COUNTRY_CODE":"US","EPHEMERIS_TYPE":"0","BSTAR":"0.00019581000000","ELEMENT_SET_NO":"999","TLE_LINE1":"1 46556U 20070AA  23134.44530812  .00002636  00000-0  19581-3 0  9999","PERIAPSIS":"546.324","MEAN_MOTION":"15.06397770","NORAD_CAT_ID":"46556","SEMIMAJOR_AXIS":"6925.355","MEAN_MOTION_DOT":"0.00002636","OBJECT_NAME":"STARLINK-1676","GP_ID":"231817410","CLASSIFICATION_TYPE":"U","RCS_SIZE":"LARGE","OBJECT_TYPE":"PAYLOAD","ECCENTRICITY":"0.00012950","OBJECT_ID":"2020-070AA","INCLINATION":"53.0538","RA_OF_ASC_NODE":"121.5658","MEAN_ELEMENT_THEORY":"SGP4","TLE_LINE2":"2 46556  53.0538 121.5658 0001295  88.7782 271.3355 15.06397770144221","FILE":"3907744","MEAN_ANOMALY":"271.3355","REF_FRAME":"TEME","REV_AT_EPOCH":"14422","DECAY_DATE":null,"CENTER_NAME":"EARTH","MEAN_MOTION_DDOT":"0.0000000000000","APOAPSIS":"548.117","SITE":"AFETR","TIME_SYSTEM":"UTC","LAUNCH_DATE":"2020-10-06","ARG_OF_PERICENTER":"88.7782","PERIOD":"95.592","EPOCH":"2023-05-14T10:41:14.621568"},{"ELEMENT_SET_NO":"999","BSTAR":"0.00001575600000","EPHEMERIS_TYPE":"0","COUNTRY_CODE":"US","ECCENTRICITY":"0.00012860","OBJECT_ID":"2020-070AB","OBJECT_TYPE":"PAYLOAD","CLASSIFICATION_TYPE":"U","GP_ID":"231817657","RCS_SIZE":"LARGE","OBJECT_NAME":"STARLINK-1679","MEAN_MOTION_DOT":"-0.00000047","NORAD_CAT_ID":"46557","SEMIMAJOR_AXIS":"6925.392","MEAN_MOTION":"15.06385857","TLE_LINE1":"1 46557U 20070AB  23134.22369895 -.00000047  00000-0  15756-4 0  9993","PERIAPSIS":"546.366","MEAN_MOTION_DDOT":"0.0000000000000","APOAPSIS":"548.148","DECAY_DATE":null,"CENTER_NAME":"EARTH","REV_AT_EPOCH":"14440","REF_FRAME":"TEME","MEAN_ANOMALY":"273.2585","FILE":"3907744","TLE_LINE2":"2 46557  53.0540 107.5558 0001286  86.8551 273.2585 15.06385857144400","MEAN_ELEMENT_THEORY":"SGP4","INCLINATION":"53.0540","RA_OF_ASC_NODE":"107.5558","EPOCH":"2023-05-14T05:22:07.589280","PERIOD":"95.593","ARG_OF_PERICENTER":"86.8551","SITE":"AFETR","TIME_SYSTEM":"UTC","LAUNCH_DATE":"2020-10-06"},{"LAUNCH_DATE":"2020-10-06","TIME_SYSTEM":"UTC","SITE":"AFETR","ARG_OF_PERICENTER":"94.5104","PERIOD":"95.593","EPOCH":"2023-05-14T08:43:48.428544","REV_AT_EPOCH":"14439","CENTER_NAME":"EARTH","DECAY_DATE":null,"APOAPSIS":"548.146","MEAN_MOTION_DDOT":"0.0000000000000","RA_OF_ASC_NODE":"106.9287","INCLINATION":"53.0530","MEAN_ELEMENT_THEORY":"SGP4","FILE":"3907744","TLE_LINE2":"2 46558  53.0530 106.9287 0001317  94.5104 265.6036 15.06393377144397","REF_FRAME":"TEME","MEAN_ANOMALY":"265.6036","OBJECT_NAME":"STARLINK-1680","RCS_SIZE":"LARGE","GP_ID":"231818409","CLASSIFICATION_TYPE":"U","OBJECT_TYPE":"PAYLOAD","OBJECT_ID":"2020-070AC","ECCENTRICITY":"0.00013170","PERIAPSIS":"546.322","TLE_LINE1":"1 46558U 20070AC  23134.36375496  .00000187  00000-0  31480-4 0  9999","MEAN_MOTION":"15.06393377","SEMIMAJOR_AXIS":"6925.369","NORAD_CAT_ID":"46558","MEAN_MOTION_DOT":"0.00000187","BSTAR":"0.00003148000000","ELEMENT_SET_NO":"999","COUNTRY_CODE":"US","EPHEMERIS_TYPE":"0"},{"OBJECT_NAME":"STARLINK-1681","RCS_SIZE":"LARGE","GP_ID":"231816661","CLASSIFICATION_TYPE":"U","OBJECT_TYPE":"PAYLOAD","OBJECT_ID":"2020-070AD","ECCENTRICITY":"0.00011460","PERIAPSIS":"546.430","TLE_LINE1":"1 46559U 20070AD  23134.28495253  .00009681  00000-0  66794-3 0  9998","MEAN_MOTION":"15.06396605","SEMIMAJOR_AXIS":"6925.359","NORAD_CAT_ID":"46559","MEAN_MOTION_DOT":"0.00009681","BSTAR":"0.00066794000000","ELEMENT_SET_NO":"999","COUNTRY_CODE":"US","EPHEMERIS_TYPE":"0","TIME_SYSTEM":"UTC","LAUNCH_DATE":"2020-10-06","SITE":"AFETR","ARG_OF_PERICENTER":"87.9291","PERIOD":"95.592","EPOCH":"2023-05-14T06:50:19.898592","REV_AT_EPOCH":"14461","CENTER_NAME":"EARTH","DECAY_DATE":null,"APOAPSIS":"548.018","MEAN_MOTION_DDOT":"0.0000000000000","RA_OF_ASC_NODE":"92.2706","INCLINATION":"53.0533","MEAN_ELEMENT_THEORY":"SGP4","FILE":"3907744","TLE_LINE2":"2 46559  53.0533  92.2706 0001146  87.9291 272.1829 15.06396605144612","REF_FRAME":"TEME","MEAN_ANOMALY":"272.1829"}];
